#dP2023  4 21  0  0  0.00000000      96 __u+U ITR00 FIT  IAC
## 2258 432000.00000000   900.00000000 60055 0.0000000000000
+  119   C06C07C08C09C10C11C12C13C14C16C19C20C21C22C23C24C25
+        C26C27C28C29C30C32C33C34C35C36C37C38C39C40C41C42C43
+        C44C45C46E01E02E03E04E05E07E08E10E11E12E13E14E15E18
+        E19E21E24E25E26E27E30E31E33E34E36G01G02G03G04G05G06
+        G07G08G09G10G11G12G13G14G15G16G17G18G19G20G21G22G23
+        G24G25G26G27G28G29G30G31G32J02J03J04R01R02R03R04R05
+        R07R08R09R11R12R13R14R15R16R17R18R19R20R21R22R24R25
++        10  8  7 10  8  7  6  8  8  9  7  6  8  7  6  6  6
++         6  5  5  8  7  6  6  6  6  7  7  9 10  8  5  8  6
++         7  6  8  7  6  6  6  6  4  4  6  6  5  5  6  6  5
++         6  6  5  5  6  6  5  6  6  6  6  5  4  5  4  7  7
++         7  5  5  6  9  5  6  7  5  5  6  7  6  7  5  5  6
++         5  4  5  6  7  6  5  6  5  7  7  8  8  7  6  5  7
++         6  7  5  7  7  8  4  7  7  6  6  6  5  5  6  6  7
%c M  cc GPS ccc cccc cccc cccc cccc ccccc ccccc ccccc ccccc
%c cc cc ccc ccc cccc cccc cccc cccc ccccc ccccc ccccc ccccc
%f  0.0000000  0.000000000  0.00000000000  0.000000000000000
%f  0.0000000  0.000000000  0.00000000000  0.000000000000000
%i    0    0    0    0      0      0      0      0         0
%i    0    0    0    0      0      0      0      0         0
/* INFORMATION & ANALYSIS CENTER (IAC)      ULTRA-RAPID DATA
/* S/V CLOCKS ARE ALIGNED TO GNSS TIME                      
/* G:C1WC2W R:C1PC2P E:C1XC5X C:C2IC6I J:C1CC2S             
/* PCV:IGS20_2247 OL/AL:FES2004  NONE     YN ORB:CoN CLK:CoN
*  2023 04 21 18 15  0.00000000
PC06  -1242.040119  30921.341472  28792.845694   -196.461790
PC07 -17296.005166  28469.098319 -25906.896292     94.337992
PC08 -12775.894225  40082.321666    365.352050    500.860678
PC09   6521.775411  35410.961419  22802.306149    741.048486
PC10  -8808.357630  28860.647763 -29325.721939    -38.975857
PC11 -12029.170812   9822.890317 -23124.792097    313.046357
PC12 -22900.799826  -6306.825338 -14616.871891    587.028382
PC13  -7462.887621  40773.766416   7118.660904    257.912238
PC14 -21233.278021  15526.289429   9435.346798    154.250084
PC16  -3819.589017  28826.820764  30868.760366    102.394984
PC19  13107.732664 -17769.113605 -17016.378023   -902.967501
PC20  25282.314458 -11596.556445  -1975.960415    612.686792
PC21 -23147.453716  -2099.764605 -15445.236167   -910.805445
PC22  -7281.181302 -14003.771353 -23009.280152   -524.737421
PC23   4295.624371  25298.242956 -10964.748301   -910.636036
PC24 -16139.972363  10823.054983  20007.046280   -143.938439
PC25  -7188.554759  26378.445171   5530.657196    111.277192
PC26 -14868.921032  -8573.129679  21993.889357   -109.540237
PC27  23759.427854  12761.658106   7177.295282    129.001029
PC28  15826.495509  21039.525564  -9254.475244     95.101991
PC29   2292.244654 -17260.644888  21796.483953    110.210605
PC30  19242.115161  -3058.484314  19976.695581      0.256460
PC32  23090.979297   2030.875945  15545.961704   -574.887669
PC33 -13097.306711  17890.761661  16969.146535   -874.979041
PC34 -18385.356367   4250.749326 -20565.746004    153.990918
PC35 -15889.782104 -20619.105578   9986.213432    641.826407
PC36   8228.691913 -25934.773802  -6190.622350   -487.106148
PC37  14259.868476  10230.729132 -21682.212581   -788.015749
PC38 -16543.113511  37872.211370  -7970.809452     73.293632
PC39  -7836.100148  25017.251462  33121.447227     -2.645403
PC40 -23404.376422  22303.267179 -27213.052605    -21.011774
PC41   6600.119926  14366.252167  23053.283497   -879.968282
PC42 -25679.993085  10941.964698    748.252346   -726.312040
PC43  -3224.155346  16931.179978 -21964.653858     17.791525
PC44 -24219.524876 -11920.107777  -7022.363062 999999.999999
PC45  -4511.134982 -25081.821736  11392.620787    -87.982845
PC46  15761.624029 -12570.474175 -19314.063740    -48.627915
PE01  21275.194774 -19984.905238  -4933.715535      4.071072
PE02 -21094.870043  20264.911016   4469.860171     33.697676
PE03 -20292.988568  10095.460710  19049.693182   -671.483997
PE04   -186.723064 -17208.921751 -24069.124513   -105.614894
PE05 -29313.580306  -3144.996868   2677.693148    -74.604059
PE07  20869.038312  14461.459629  15219.087820    -39.338438
PE08    -79.042471  17042.182219  24208.147437    -71.045500
PE10  -9638.334469 -27960.449314   1166.759409   -528.160345
PE11 -15128.787118 -23687.045324  -9263.130334   1682.607431
PE12  -2990.996179 -27535.726086  10399.686753   -507.842081
PE13  14807.040055  24188.576549   8502.464628    -18.721739
PE14 -30632.753583  -5636.232317  -3500.293381    203.643419
PE15   2834.287667  27445.791061 -10733.439868    -16.230827
PE18  22530.306805  10201.681832  -3905.116508   -139.040607
PE19  22424.206875  -8342.116353 -17414.507812  -2711.657126
PE21  21670.675603  -5003.406140 -19539.408189   -524.710284
PE24  -9130.981651 -14761.281981  23961.483429    -56.928933
PE25 -21563.805742   4672.519726  19730.341036   -603.703143
PE26  17995.051276   5920.578844  22747.017679     81.965558
PE27   9810.423361  14052.241543 -24135.761692    -30.750897
PE30  -8256.740274  24733.759317 -14010.575706   -111.523159
PE31   7710.823526 -24645.349800  14472.617529   -521.912772
PE33  10731.719742 -14457.129326  23491.249666   -445.789405
PE34 -10614.483286  14642.246191 -23440.749232    -41.424540
PE36 -17958.246871  -6791.591527 -22524.856837    -44.791157
PG01  14941.427129    386.198896  21666.058786    191.361462
PG02  -4989.531604  19270.784529 -17245.650570   -603.799034
PG03  20844.801485  -9777.410238  13007.566085   -323.633981
PG04  24574.136041   -966.462094 -10163.081708     22.435106
PG05 -14804.555580  -5523.768932 -21536.202989   -124.280416
PG06  -4688.642594 -25691.994105   4594.436947    587.461295
PG07   9405.871094 -15291.279315 -18961.467418    196.171126
PG08  25907.561444   6479.521730  -2023.046292   -118.850386
PG09  17441.564349  -9359.350585 -17800.003316   -175.218919
PG10  -7999.400264  21704.414302  12945.680223    -33.784477
PG11 -12436.474490 -21432.751185  -9603.363447   -170.216310
PG12 -21133.913862   6260.025658  14473.781236   -366.722864
PG13 -21701.823472 -13615.338696  -7570.328972    509.078644
PG14  11048.608122 -21800.745966  10226.100185     32.184798
PG15 -26406.408197  -3638.809126  -2083.034348     32.682394
PG16  12118.430504   9512.294223 -21967.181385   -507.139939
PG17   3018.363465 -14844.651902  22243.683404    711.631057
PG18  -7001.452707  18548.209780 -17600.584967   -234.098597
PG19  -7636.025507 -16425.147086  19297.800326    306.716952
PG20  -8341.988934 -14439.550544 -20678.535435    437.763504
PG21  17717.972168   9105.153814  18523.755546    154.139971
PG22  10781.881484  16634.913218  18203.737949    468.198751
PG23 -16480.846168  20668.510963   1528.264108     18.442404
PG24 -17321.276166  -4268.707365  19443.021553   -160.462619
PG25 -19975.144732  16180.452175   5782.755344    437.306527
PG26   2276.548407  18963.026872 -18435.609902    241.577610
PG27  20091.011437  12995.184065 -12213.461837     53.882968
PG28   4321.795560  25426.538103   6332.775097     68.495856
PG29 -20790.069650   4915.110629 -15892.470013   -596.450599
PG30   1408.511834 -23823.516413 -11264.019791   -521.237707
PG31   8928.132228  24663.790045  -2388.379756   -214.483943
PG32   1009.246501  15701.831067  21598.566785   -457.446827
PJ02 -34286.949407  24536.014470   5099.058723     -1.603120
PJ03 -21595.688434  20449.618662 -25295.879985      2.695221
PJ04 -28298.971559  31043.456108  10734.230801     94.239426
PR01  15996.934934 -11556.695224 -16144.290883     27.099102
PR02  -2863.443230 -10458.860402 -23036.523473    -22.927842
PR03 -19567.138961  -3726.135911 -15848.851228     76.431967
PR04 -25049.136543   4791.945476    -73.887024    184.207861
PR05 -16969.153977  10696.353695  15762.251840    111.330494
PR07  20157.382454   3382.319064  15337.701765     54.305708
PR08  25036.817070  -4955.281346     35.724132    -70.443836
PR09  -1039.019406  22754.483996 -11546.714869    115.974848
PR11  12772.153331  -7737.715541 -20666.886499    -40.401931
PR12  10433.066921 -22513.874618  -5924.225553     26.623120
PR13   2424.555509 -23352.801715   9957.065908    -34.224243
PR14  -8158.049347  -9662.640560  22158.753817     24.580498
PR15 -13082.367483   8806.778047  20067.116690     89.680397
PR16 -10357.601539  22458.634821   6322.422021     13.763837
PR17 -18260.421770 -16704.138733  -6246.407621    623.233678
PR18 -15516.191532  -4575.087800 -19691.328754     77.687940
PR19  -6219.045122   8686.834177 -23167.297339   -229.896388
PR20   9532.187282  20422.550373 -11990.102308    -91.535403
PR21  18297.214114  15922.652407   7861.336760     -1.722230
PR22  15291.567585   4104.304612  20029.259609     80.337285
PR24 -10419.783060 -20338.394376  11354.185012    163.801315
PR25  17484.312524  17557.576692   6029.866431     63.135170
EOF
